ORBCOMM FM103           
1 40091U 14040F   24143.15769893  .00001769  00000+0  43018-3 0  9996
2 40091  47.0057  62.3382 0002493 285.0109  75.0500 14.56624336507061
ORBCOMM FM114           
1 41179U 15081A   24143.87680735  .00002003  00000+0  48147-3 0  9996
2 41179  47.0024 328.2266 0001478 328.1424  31.9371 14.56678008447536
ORBCOMM FM119           
1 41180U 15081B   24143.23008624  .00001594  00000+0  39129-3 0  9993
2 41180  46.9999 240.4655 0000654  11.5953 348.4947 14.56612916448698
ORBCOMM FM105           
1 41181U 15081C   24143.23537886  .00000768  00000+0  26625-3 0  9990
2 41181  47.0005 208.4297 0001821 339.3953  20.6853 14.44403605444212
ORBCOMM FM110           
1 41182U 15081D   24143.51117867  .00002116  00000+0  50653-3 0  9992
2 41182  47.0019 329.3575 0002110 191.3347 168.7491 14.56670339447358
ORBCOMM FM118           
1 41183U 15081E   24143.76301290  .00002080  00000+0  49866-3 0  9999
2 41183  47.0038 328.4811 0002154 188.2269 171.8581 14.56660417447495
ORBCOMM FM112           
1 41184U 15081F   24144.23575132  .00002132  00000+0  50993-3 0  9992
2 41184  46.9978 234.9371 0000819 323.9659  36.1170 14.56685406448837
ORBCOMM FM113           
1 41185U 15081G   24141.40080893  .00002982  00000+0  69860-3 0  9990
2 41185  46.9998 248.5633 0000461 306.9915  53.0928 14.56662018448351
